{
  "links" : {
    "next" : "https://api.nasa.gov/neo/rest/v1/feed?start_date=1999-09-16&end_date=1999-09-16&detailed=true&api_key=t0TVs3DtDT2H8Oy2Zy8m2eVrNsAVKAexjcZXUckd",
    "prev" : "https://api.nasa.gov/neo/rest/v1/feed?start_date=1999-09-14&end_date=1999-09-14&detailed=true&api_key=t0TVs3DtDT2H8Oy2Zy8m2eVrNsAVKAexjcZXUckd",
    "self" : "https://api.nasa.gov/neo/rest/v1/feed?start_date=1999-09-15&end_date=1999-09-15&detailed=true&api_key=t0TVs3DtDT2H8Oy2Zy8m2eVrNsAVKAexjcZXUckd"
  },
  "element_count" : 3,
  "near_earth_objects" : {
    "1999-09-15" : [ {
      "links" : {
        "self" : "https://api.nasa.gov/neo/rest/v1/neo/2211871?api_key=t0TVs3DtDT2H8Oy2Zy8m2eVrNsAVKAexjcZXUckd"
      },
      "neo_reference_id" : "2211871",
      "name" : "211871 (2004 HO)",
      "nasa_jpl_url" : "http://ssd.jpl.nasa.gov/sbdb.cgi?sstr=2211871",
      "absolute_magnitude_h" : 18.8,
      "estimated_diameter" : {
        "kilometers" : {
          "estimated_diameter_min" : 0.4619074603,
          "estimated_diameter_max" : 1.0328564805
        },
        "meters" : {
          "estimated_diameter_min" : 461.9074602816,
          "estimated_diameter_max" : 1032.8564805039
        },
        "miles" : {
          "estimated_diameter_min" : 0.2870159005,
          "estimated_diameter_max" : 0.6417870641
        },
        "feet" : {
          "estimated_diameter_min" : 1515.4444719902,
          "estimated_diameter_max" : 3388.6368554964
        }
      },
      "is_potentially_hazardous_asteroid" : false,
      "close_approach_data" : [ {
        "close_approach_date" : "1999-09-15",
        "epoch_date_close_approach" : 937378800000,
        "relative_velocity" : {
          "kilometers_per_second" : "11.7978501877",
          "kilometers_per_hour" : "42472.260675779",
          "miles_per_hour" : "26390.6110849028"
        },
        "miss_distance" : {
          "astronomical" : "0.0628432798",
          "lunar" : "24.4460353851",
          "kilometers" : "9401221",
          "miles" : "5841647.5"
        },
        "orbiting_body" : "Earth"
      } ],
      "orbital_data" : {
        "orbit_id" : "61",
        "orbit_determination_date" : "2017-04-06 09:25:26",
        "orbit_uncertainty" : "0",
        "minimum_orbit_intersection" : ".0605128",
        "jupiter_tisserand_invariant" : "3.833",
        "epoch_osculation" : "2458000.5",
        "eccentricity" : ".5109102979363258",
        "semi_major_axis" : "1.84620977519947",
        "inclination" : "7.872991408874989",
        "ascending_node_longitude" : "146.1340414974386",
        "orbital_period" : "916.2626762512482",
        "perihelion_distance" : ".9029621888993516",
        "perihelion_argument" : "163.762108946976",
        "aphelion_distance" : "2.789457361499588",
        "perihelion_time" : "2457813.585169873003",
        "mean_anomaly" : "73.43891723389086",
        "mean_motion" : ".3929004305543539",
        "equinox" : "J2000"
      }
    }, {
      "links" : {
        "self" : "https://api.nasa.gov/neo/rest/v1/neo/2414286?api_key=t0TVs3DtDT2H8Oy2Zy8m2eVrNsAVKAexjcZXUckd"
      },
      "neo_reference_id" : "2414286",
      "name" : "414286 (2008 OC6)",
      "nasa_jpl_url" : "http://ssd.jpl.nasa.gov/sbdb.cgi?sstr=2414286",
      "absolute_magnitude_h" : 18.6,
      "estimated_diameter" : {
        "kilometers" : {
          "estimated_diameter_min" : 0.5064714588,
          "estimated_diameter_max" : 1.1325046106
        },
        "meters" : {
          "estimated_diameter_min" : 506.4714588346,
          "estimated_diameter_max" : 1132.5046106177
        },
        "miles" : {
          "estimated_diameter_min" : 0.3147066768,
          "estimated_diameter_max" : 0.7037055224
        },
        "feet" : {
          "estimated_diameter_min" : 1661.651821003,
          "estimated_diameter_max" : 3715.566426699
        }
      },
      "is_potentially_hazardous_asteroid" : true,
      "close_approach_data" : [ {
        "close_approach_date" : "1999-09-15",
        "epoch_date_close_approach" : 937378800000,
        "relative_velocity" : {
          "kilometers_per_second" : "13.6301276056",
          "kilometers_per_hour" : "49068.4593802162",
          "miles_per_hour" : "30489.2324410015"
        },
        "miss_distance" : {
          "astronomical" : "0.0973542847",
          "lunar" : "37.8708152771",
          "kilometers" : "14563994",
          "miles" : "9049646"
        },
        "orbiting_body" : "Earth"
      } ],
      "orbital_data" : {
        "orbit_id" : "55",
        "orbit_determination_date" : "2017-04-06 09:21:32",
        "orbit_uncertainty" : "1",
        "minimum_orbit_intersection" : ".0300973",
        "jupiter_tisserand_invariant" : "6.403",
        "epoch_osculation" : "2458000.5",
        "eccentricity" : ".19920430586072",
        "semi_major_axis" : ".9230242579289949",
        "inclination" : "21.84487636660626",
        "ascending_node_longitude" : "177.6126763455327",
        "orbital_period" : "323.9053333962744",
        "perihelion_distance" : ".7391538513356433",
        "perihelion_argument" : "295.8524419293333",
        "aphelion_distance" : "1.106894664522347",
        "perihelion_time" : "2457998.781326819033",
        "mean_anomaly" : "1.910194990185961",
        "mean_motion" : "1.111435851411457",
        "equinox" : "J2000"
      }
    }, {
      "links" : {
        "self" : "https://api.nasa.gov/neo/rest/v1/neo/3727666?api_key=t0TVs3DtDT2H8Oy2Zy8m2eVrNsAVKAexjcZXUckd"
      },
      "neo_reference_id" : "3727666",
      "name" : "(2015 SD)",
      "nasa_jpl_url" : "http://ssd.jpl.nasa.gov/sbdb.cgi?sstr=3727666",
      "absolute_magnitude_h" : 24.4,
      "estimated_diameter" : {
        "kilometers" : {
          "estimated_diameter_min" : 0.0350392641,
          "estimated_diameter_max" : 0.0783501764
        },
        "meters" : {
          "estimated_diameter_min" : 35.0392641108,
          "estimated_diameter_max" : 78.3501764334
        },
        "miles" : {
          "estimated_diameter_min" : 0.0217723826,
          "estimated_diameter_max" : 0.0486845275
        },
        "feet" : {
          "estimated_diameter_min" : 114.9582192654,
          "estimated_diameter_max" : 257.0543928497
        }
      },
      "is_potentially_hazardous_asteroid" : false,
      "close_approach_data" : [ {
        "close_approach_date" : "1999-09-15",
        "epoch_date_close_approach" : 937378800000,
        "relative_velocity" : {
          "kilometers_per_second" : "10.7844885506",
          "kilometers_per_hour" : "38824.1587823177",
          "miles_per_hour" : "24123.8224389351"
        },
        "miss_distance" : {
          "astronomical" : "0.104029723",
          "lunar" : "40.4675636292",
          "kilometers" : "15562625",
          "miles" : "9670167"
        },
        "orbiting_body" : "Earth"
      } ],
      "orbital_data" : {
        "orbit_id" : "7",
        "orbit_determination_date" : "2017-04-06 08:31:51",
        "orbit_uncertainty" : "7",
        "minimum_orbit_intersection" : ".0803637",
        "jupiter_tisserand_invariant" : "6.777",
        "epoch_osculation" : "2458000.5",
        "eccentricity" : ".2658986534773136",
        "semi_major_axis" : ".8614404905262707",
        "inclination" : "20.1216273904557",
        "ascending_node_longitude" : "176.296436306807",
        "orbital_period" : "292.0359713016923",
        "perihelion_distance" : ".6323846240444988",
        "perihelion_argument" : "350.9837972505045",
        "aphelion_distance" : "1.090496357008043",
        "perihelion_time" : "2458004.163734231361",
        "mean_anomaly" : "355.4836237556251",
        "mean_motion" : "1.232724853706794",
        "equinox" : "J2000"
      }
    } ]
  }
}